[{"OBJECT_NAME":"STARLINK-34458","OBJECT_ID":"2025-126S","EPOCH":"2026-03-09T20:04:15.343680","MEAN_MOTION":14.98329544,"ECCENTRICITY":0.00028584,"INCLINATION":70.0023,"RA_OF_ASC_NODE":34.0923,"ARG_OF_PERICENTER":266.5714,"MEAN_ANOMALY":93.5118,"EPHEMERIS_TYPE":0,"CLASSIFICATION_TYPE":"U","NORAD_CAT_ID":64360,"ELEMENT_SET_NO":999,"REV_AT_EPOCH":4070,"BSTAR":0.00045292886,"MEAN_MOTION_DOT":5.315e-5,"MEAN_MOTION_DDOT":0},{"OBJECT_NAME":"SICH-1","OBJECT_ID":"1995-046A","EPOCH":"2026-03-09T16:32:37.076064","MEAN_MOTION":14.94365961,"ECCENTRICITY":0.00171667,"INCLINATION":82.5243,"RA_OF_ASC_NODE":136.8069,"ARG_OF_PERICENTER":299.5667,"MEAN_ANOMALY":60.3842,"EPHEMERIS_TYPE":0,"CLASSIFICATION_TYPE":"U","NORAD_CAT_ID":23657,"ELEMENT_SET_NO":999,"REV_AT_EPOCH":65112,"BSTAR":0.0001874143,"MEAN_MOTION_DOT":2.046e-5,"MEAN_MOTION_DDOT":0}]
